CCSDS_OMM_VERS = 2.0
CREATION_DATE  = 
ORIGINATOR     = 

OBJECT_NAME    = KUIPER-00117
OBJECT_ID      = 2025-228C
CENTER_NAME    = EARTH
REF_FRAME      = TEME
TIME_SYSTEM    = UTC
MEAN_ELEMENT_THEORY = SGP/SGP4

EPOCH          = 2025-10-27T04:00:37.721664
MEAN_MOTION    = 15.34786133
ECCENTRICITY   = .0006111
INCLINATION    = 51.8803
RA_OF_ASC_NODE = 244.9055
ARG_OF_PERICENTER = 178.0773
MEAN_ANOMALY   = 182.0237

EPHEMERIS_TYPE = 0
CLASSIFICATION_TYPE = U
NORAD_CAT_ID   = 65949
ELEMENT_SET_NO = 999
REV_AT_EPOCH   = 326
BSTAR          = .48293E-3
MEAN_MOTION_DOT = .16196E-3
MEAN_MOTION_DDOT = 0

CCSDS_OMM_VERS = 2.0
CREATION_DATE  = 
ORIGINATOR     = 

OBJECT_NAME    = KUIPER-00121
OBJECT_ID      = 2025-228D
CENTER_NAME    = EARTH
REF_FRAME      = TEME
TIME_SYSTEM    = UTC
MEAN_ELEMENT_THEORY = SGP/SGP4

EPOCH          = 2025-10-27T02:34:19.907040
MEAN_MOTION    = 15.34214970
ECCENTRICITY   = .0005702
INCLINATION    = 51.8814
RA_OF_ASC_NODE = 245.2560
ARG_OF_PERICENTER = 196.2535
MEAN_ANOMALY   = 163.8268

EPHEMERIS_TYPE = 0
CLASSIFICATION_TYPE = U
NORAD_CAT_ID   = 65950
ELEMENT_SET_NO = 999
REV_AT_EPOCH   = 325
BSTAR          = .89094E-3
MEAN_MOTION_DOT = .29707E-3
MEAN_MOTION_DDOT = 0

CCSDS_OMM_VERS = 2.0
CREATION_DATE  = 
ORIGINATOR     = 

OBJECT_NAME    = KUIPER-00122
OBJECT_ID      = 2025-228E
CENTER_NAME    = EARTH
REF_FRAME      = TEME
TIME_SYSTEM    = UTC
MEAN_ELEMENT_THEORY = SGP/SGP4

EPOCH          = 2025-10-27T02:35:45.165696
MEAN_MOTION    = 15.34067062
ECCENTRICITY   = .0005852
INCLINATION    = 51.8804
RA_OF_ASC_NODE = 245.2577
ARG_OF_PERICENTER = 203.7554
MEAN_ANOMALY   = 156.3162

EPHEMERIS_TYPE = 0
CLASSIFICATION_TYPE = U
NORAD_CAT_ID   = 65951
ELEMENT_SET_NO = 999
REV_AT_EPOCH   = 325
BSTAR          = .72994E-3
MEAN_MOTION_DOT = .24138E-3
MEAN_MOTION_DDOT = 0

CCSDS_OMM_VERS = 2.0
CREATION_DATE  = 
ORIGINATOR     = 

OBJECT_NAME    = KUIPER-00123
OBJECT_ID      = 2025-228F
CENTER_NAME    = EARTH
REF_FRAME      = TEME
TIME_SYSTEM    = UTC
MEAN_ELEMENT_THEORY = SGP/SGP4

EPOCH          = 2025-10-27T02:34:28.735392
MEAN_MOTION    = 15.34143478
ECCENTRICITY   = .0005492
INCLINATION    = 51.8801
RA_OF_ASC_NODE = 245.2498
ARG_OF_PERICENTER = 191.4177
MEAN_ANOMALY   = 168.6685

EPHEMERIS_TYPE = 0
CLASSIFICATION_TYPE = U
NORAD_CAT_ID   = 65952
ELEMENT_SET_NO = 999
REV_AT_EPOCH   = 325
BSTAR          = .87018E-3
MEAN_MOTION_DOT = .28935E-3
MEAN_MOTION_DDOT = 0

CCSDS_OMM_VERS = 2.0
CREATION_DATE  = 
ORIGINATOR     = 

OBJECT_NAME    = KUIPER-00124
OBJECT_ID      = 2025-228G
CENTER_NAME    = EARTH
REF_FRAME      = TEME
TIME_SYSTEM    = UTC
MEAN_ELEMENT_THEORY = SGP/SGP4

EPOCH          = 2025-10-27T02:36:20.956032
MEAN_MOTION    = 15.34036739
ECCENTRICITY   = .000558
INCLINATION    = 51.8812
RA_OF_ASC_NODE = 245.2630
ARG_OF_PERICENTER = 206.2997
MEAN_ANOMALY   = 153.7706

EPHEMERIS_TYPE = 0
CLASSIFICATION_TYPE = U
NORAD_CAT_ID   = 65953
ELEMENT_SET_NO = 999
REV_AT_EPOCH   = 325
BSTAR          = .80105E-3
MEAN_MOTION_DOT = .26508E-3
MEAN_MOTION_DDOT = 0

CCSDS_OMM_VERS = 2.0
CREATION_DATE  = 
ORIGINATOR     = 

OBJECT_NAME    = KUIPER-00125
OBJECT_ID      = 2025-228H
CENTER_NAME    = EARTH
REF_FRAME      = TEME
TIME_SYSTEM    = UTC
MEAN_ELEMENT_THEORY = SGP/SGP4

EPOCH          = 2025-10-27T02:31:14.598912
MEAN_MOTION    = 15.34446150
ECCENTRICITY   = .0005747
INCLINATION    = 51.8799
RA_OF_ASC_NODE = 245.2356
ARG_OF_PERICENTER = 186.9999
MEAN_ANOMALY   = 173.0907

EPHEMERIS_TYPE = 0
CLASSIFICATION_TYPE = U
NORAD_CAT_ID   = 65954
ELEMENT_SET_NO = 999
REV_AT_EPOCH   = 325
BSTAR          = .92684E-3
MEAN_MOTION_DOT = .31155E-3
MEAN_MOTION_DDOT = 0

CCSDS_OMM_VERS = 2.0
CREATION_DATE  = 
ORIGINATOR     = 

OBJECT_NAME    = KUIPER-00126
OBJECT_ID      = 2025-228J
CENTER_NAME    = EARTH
REF_FRAME      = TEME
TIME_SYSTEM    = UTC
MEAN_ELEMENT_THEORY = SGP/SGP4

EPOCH          = 2025-10-27T02:35:05.411328
MEAN_MOTION    = 15.34175977
ECCENTRICITY   = .0006086
INCLINATION    = 51.8807
RA_OF_ASC_NODE = 245.2556
ARG_OF_PERICENTER = 201.1709
MEAN_ANOMALY   = 158.9025

EPHEMERIS_TYPE = 0
CLASSIFICATION_TYPE = U
NORAD_CAT_ID   = 65955
ELEMENT_SET_NO = 999
REV_AT_EPOCH   = 325
BSTAR          = .87274E-3
MEAN_MOTION_DOT = .29055E-3
MEAN_MOTION_DDOT = 0

CCSDS_OMM_VERS = 2.0
CREATION_DATE  = 
ORIGINATOR     = 

OBJECT_NAME    = KUIPER-00127
OBJECT_ID      = 2025-228K
CENTER_NAME    = EARTH
REF_FRAME      = TEME
TIME_SYSTEM    = UTC
MEAN_ELEMENT_THEORY = SGP/SGP4

EPOCH          = 2025-10-27T04:01:02.554752
MEAN_MOTION    = 15.34761526
ECCENTRICITY   = .0005977
INCLINATION    = 51.8806
RA_OF_ASC_NODE = 244.9081
ARG_OF_PERICENTER = 179.2147
MEAN_ANOMALY   = 180.8849

EPHEMERIS_TYPE = 0
CLASSIFICATION_TYPE = U
NORAD_CAT_ID   = 65956
ELEMENT_SET_NO = 999
REV_AT_EPOCH   = 326
BSTAR          = .85878E-3
MEAN_MOTION_DOT = .29126E-3
MEAN_MOTION_DDOT = 0

CCSDS_OMM_VERS = 2.0
CREATION_DATE  = 
ORIGINATOR     = 

OBJECT_NAME    = KUIPER-00128
OBJECT_ID      = 2025-228L
CENTER_NAME    = EARTH
REF_FRAME      = TEME
TIME_SYSTEM    = UTC
MEAN_ELEMENT_THEORY = SGP/SGP4

EPOCH          = 2025-10-27T02:30:00.078912
MEAN_MOTION    = 15.34544398
ECCENTRICITY   = .0005808
INCLINATION    = 51.8808
RA_OF_ASC_NODE = 245.2358
ARG_OF_PERICENTER = 182.4806
MEAN_ANOMALY   = 177.6152

EPHEMERIS_TYPE = 0
CLASSIFICATION_TYPE = U
NORAD_CAT_ID   = 65957
ELEMENT_SET_NO = 999
REV_AT_EPOCH   = 325
BSTAR          = .77476E-3
MEAN_MOTION_DOT = .26045E-3
MEAN_MOTION_DDOT = 0

CCSDS_OMM_VERS = 2.0
CREATION_DATE  = 
ORIGINATOR     = 

OBJECT_NAME    = KUIPER-00129
OBJECT_ID      = 2025-228M
CENTER_NAME    = EARTH
REF_FRAME      = TEME
TIME_SYSTEM    = UTC
MEAN_ELEMENT_THEORY = SGP/SGP4

EPOCH          = 2025-10-27T02:29:27.055968
MEAN_MOTION    = 15.34555755
ECCENTRICITY   = .0005925
INCLINATION    = 51.8808
RA_OF_ASC_NODE = 245.2332
ARG_OF_PERICENTER = 177.2066
MEAN_ANOMALY   = 182.8954

EPHEMERIS_TYPE = 0
CLASSIFICATION_TYPE = U
NORAD_CAT_ID   = 65958
ELEMENT_SET_NO = 999
REV_AT_EPOCH   = 325
BSTAR          = .80068E-3
MEAN_MOTION_DOT = .26943E-3
MEAN_MOTION_DDOT = 0

CCSDS_OMM_VERS = 2.0
CREATION_DATE  = 
ORIGINATOR     = 

OBJECT_NAME    = KUIPER-00130
OBJECT_ID      = 2025-228N
CENTER_NAME    = EARTH
REF_FRAME      = TEME
TIME_SYSTEM    = UTC
MEAN_ELEMENT_THEORY = SGP/SGP4

EPOCH          = 2025-10-27T02:32:32.957664
MEAN_MOTION    = 15.34372837
ECCENTRICITY   = .0005275
INCLINATION    = 51.8803
RA_OF_ASC_NODE = 245.2414
ARG_OF_PERICENTER = 193.4064
MEAN_ANOMALY   = 166.6782

EPHEMERIS_TYPE = 0
CLASSIFICATION_TYPE = U
NORAD_CAT_ID   = 65959
ELEMENT_SET_NO = 999
REV_AT_EPOCH   = 325
BSTAR          = .86824E-3
MEAN_MOTION_DOT = .29083E-3
MEAN_MOTION_DDOT = 0

CCSDS_OMM_VERS = 2.0
CREATION_DATE  = 
ORIGINATOR     = 

OBJECT_NAME    = KUIPER-00134
OBJECT_ID      = 2025-228P
CENTER_NAME    = EARTH
REF_FRAME      = TEME
TIME_SYSTEM    = UTC
MEAN_ELEMENT_THEORY = SGP/SGP4

EPOCH          = 2025-10-27T02:33:46.670688
MEAN_MOTION    = 15.34259195
ECCENTRICITY   = .0005319
INCLINATION    = 51.8800
RA_OF_ASC_NODE = 245.2464
ARG_OF_PERICENTER = 197.7583
MEAN_ANOMALY   = 162.3217

EPHEMERIS_TYPE = 0
CLASSIFICATION_TYPE = U
NORAD_CAT_ID   = 65960
ELEMENT_SET_NO = 999
REV_AT_EPOCH   = 325
BSTAR          = .85432E-3
MEAN_MOTION_DOT = .28504E-3
MEAN_MOTION_DDOT = 0

